[{"OBJECT_NAME":"STARLINK-34374","OBJECT_ID":"2025-123T","EPOCH":"2026-03-09T19:18:52.088256","MEAN_MOTION":14.98357012,"ECCENTRICITY":0.00036929,"INCLINATION":70.0019,"RA_OF_ASC_NODE":194.2446,"ARG_OF_PERICENTER":271.1836,"MEAN_ANOMALY":88.89,"EPHEMERIS_TYPE":0,"CLASSIFICATION_TYPE":"U","NORAD_CAT_ID":64308,"ELEMENT_SET_NO":999,"REV_AT_EPOCH":4163,"BSTAR":0.0006243017,"MEAN_MOTION_DOT":7.369e-5,"MEAN_MOTION_DDOT":0},{"OBJECT_NAME":"CZ-4C R\/B","OBJECT_ID":"2021-109B","EPOCH":"2026-03-09T22:38:24.916416","MEAN_MOTION":14.75647247,"ECCENTRICITY":0.01171981,"INCLINATION":98.2159,"RA_OF_ASC_NODE":140.2327,"ARG_OF_PERICENTER":108.8459,"MEAN_ANOMALY":252.5502,"EPHEMERIS_TYPE":0,"CLASSIFICATION_TYPE":"U","NORAD_CAT_ID":49496,"ELEMENT_SET_NO":999,"REV_AT_EPOCH":23090,"BSTAR":0.00015081956,"MEAN_MOTION_DOT":1.092e-5,"MEAN_MOTION_DDOT":0}]
